VHHH 150830Z 12006KT 9999 FEW040 28/14 Q1018 NOSIG

TAF VHHH 150600Z 1506/1609 36015KT 9999 FEW025 TX26/1509Z TN21/1522Z TEMPO 1506/1512 36015G25KT BECMG 1513/1515 36020KT

KJFK 160155Z 27008KT 10SM SCT070 SCT150 BKN250 07/M02 A2987 RMK AO2 SLP114 T00701022

TAF KJFK 160000Z 1600/1706 27008KT P6SM SCT070 SCT150 BKN250

RJAA 150900Z 32004KT 9999 FEW040 BKN050 14/04 Q1015 NOSIG

TAF RJAA 150600Z 1506/1606 36006KT 9999 FEW008 BKN015 TEMPO 1506/1512 SCT004 BKN008 BECMG 1513/1516 32006KT

RJCC 150900Z 35014KT 9999 -SHRA FEW010 SCT030 BKN050 03/01 Q1014 RMK 1ST010 3CU030 5CU050

TAF RJCC 150600Z 1506/1612 34010KT 9999 FEW008 BKN025 TEMPO 1507/1514 3000 -SHSN BKN030 BECMG 1513/1515 16006KT

PANC 151000Z 01005KT 10SM SCT200 M09/M12 A2948 RMK AO2 SLP986

TAF PANC 150600Z 1506/1606 VRB03KT P6SM OVC050 FM151200 02003KT P6SM SKC

PABR 151000Z 06017KT 8SM -SN OVC010 M14/M17 A3007 RMK AO2

TAF PABR 150600Z 1506/1606 VRB04KT P6SM OVC013 FM151500 08008KT 6SM -SN BR OVC008

CYQX 151000Z 26015G23KT 20SM FEW037 02/M01 A2933 RMK SC2 SLP940

TAF CYQX 150600Z 1506/1606 26015KT 9999 FEW030 TEMPO 1506/1512 BKN030 BECMG 1510/1512 26012KT

KBOS 160155Z 27016G31KT 10SM SCT048 BKN110 OVC170 02/M07 A2955 RMK AO2 PK WND 27033/2214

TAF KBOS 160000Z 1600/1706 27016G31KT P6SM SCT048 BKN110 OVC170 FM160230 31013G25KT P6SM OVC035

KEWR 160155Z 30019G25KT 10SM FEW040 BKN055 BKN075 BKN130 12/M02 A2987 RMK AO2 PK WND 31031/1817

TAF KEWR 160000Z 1600/1706 00000KT 10SM FEW075 SCT100 SCT200 BKN250 BECMG 1608/1610 08008KT 6SM BKN025
